#dP2021  3 10  0  0  0.00000000      96 __u+U ITR00 FIT  IAC
## 2148 259200.00000000   900.00000000 59283 0.0000000000000
+  116   C06C07C08C09C10C11C12C13C14C16C19C20C21C22C23C24C25
+        C26C27C28C29C30C32C33C34C35C36C37C38C39C40C41C42C43
+        C44C45C46E01E02E03E04E05E07E08E09E11E12E13E14E15E18
+        E19E21E24E25E26E27E30E31E33G01G02G03G04G05G06G07G08
+        G09G10G11G12G13G14G15G16G17G18G19G20G21G22G23G24G25
+        G26G27G28G29G30G31G32J01J02J03R01R02R03R04R05R07R08
+        R09R11R12R13R14R15R16R17R18R19R20R21R22R24  0  0  0
++         8  9  9  7  8  8  9  9  9  0  9  8  9  7  8  8  9
++         9  7  8  8  7  7  8  8  7  7  7  9 10 10  8  7  8
++         7  7  7  6  7  7  8  7  7  8  9  7  8  7  7  6  7
++         8  7  7  8  7  7  7  6  7  7  7  8  6  7  7  7  6
++         6  7  7  8  7  7  6  6  7  8  7  7  7  6  6  7  7
++         6  6  7  6  8  8  8 12  9 10  7  8  7  8  7  7  7
++         8  6  7  8  7  8  7  9  7  9  8  8  9  8  0  0  0
%c M  cc GPS ccc cccc cccc cccc cccc ccccc ccccc ccccc ccccc
%c cc cc ccc ccc cccc cccc cccc cccc ccccc ccccc ccccc ccccc
%f  0.0000000  0.000000000  0.00000000000  0.000000000000000
%f  0.0000000  0.000000000  0.00000000000  0.000000000000000
%i    0    0    0    0      0      0      0      0         0
%i    0    0    0    0      0      0      0      0         0
/* INFORMATION & ANALYSIS CENTER (IAC)      ULTRA-RAPID DATA
/* S/V CLOCKS ARE ALIGNED TO GNSS TIME                      
/* G:C1WC2W R:C1PC2P E:C1XC5X C:C2IC6I J:C1CC2S             
/* PCV:IGS14_2134 OL/AL:FES2004  NONE     YN ORB:CoN CLK:CoN
*  2021 03 10  9  0  0.00000000
PC06  -6628.175185  28861.880769 -29371.498287    163.231129
PC07 -21550.209434  24689.471102  26514.249790     -2.597004
PC08 -19716.075013  37409.929679   2647.856954   -902.548190
PC09   5298.001381  36643.409851 -19475.077172    678.987020
PC10  -6156.788018  26959.620165  31958.251976    -74.010380
PC11 -16600.970997   -993.260310  22465.613408   -877.516044
PC12 -17094.338067 -18848.327635  11478.980510    853.944680
PC13  -9902.386386  39453.255157 -11450.941104    174.102858
PC14 -27432.066684   1323.460267  -4753.666203    174.988190
PC16      0.000000      0.000000      0.000000 999999.999999
PC19  23247.388467  -7661.265540  13446.188662    756.247657
PC20  27438.141100   4127.494922  -3096.641152   -926.912743
PC21 -15318.212198 -14065.899328  18619.528498   -877.197564
PC22   5501.553327 -15337.329505  22664.772756   -910.450135
PC23 -10381.130643  24704.096181   7799.590462   -876.957809
PC24 -17780.487253  -1353.091095 -21485.478029   -778.985554
PC25 -19532.151617  17676.651205  -9250.377884   -950.826332
PC26  -6310.972346 -17450.568306 -20841.472377    937.520110
PC27  13158.031763  24468.706239  -2511.925484    496.206554
PC28      9.981762  23878.687474  14446.288285   -100.200729
PC29  12738.674778  -9783.448979 -22826.033477    362.987579
PC30  18948.233518  10494.193140 -17582.632595    451.208629
PC32  15458.353669  13937.236841 -18573.686620   -909.193547
PC33 -23248.272756   7732.422017 -13336.054850   -949.015584
PC34 -18934.484981  -9886.705614  17966.085455   -722.348479
PC35   -576.560060 -23772.517919 -14639.092750   -381.607759
PC36  20011.962894 -16939.607229   9568.032961   -743.865705
PC37   5155.699954  18247.816021  20491.741611   -874.215132
PC38 -17463.761762  38446.209296   -380.115738    134.903232
PC39   -605.273114  31427.496169 -28033.893681 999999.999999
PC40 -11731.319477  21764.712364  34143.858869    139.448135
PC41  -5758.647517  15316.370671 -22554.845858 999999.999999
PC42 -27249.626246  -4620.221087   3853.475891   -927.669645
PC43 -13177.722697   9252.174948  22785.925206   -632.871565
PC44 -13868.677554 -24133.046171   2271.474573     78.360841
PC45  10285.507658 -24693.461698  -7907.496315    382.830562
PC46  18045.074701    379.865181  21272.819586    369.711999
PE01  -3559.611054 -16623.494241 -24233.513361  -1062.454684
PE02   3646.567939  16583.042056  24242.619184    203.973445
PE03  14201.952495  21131.207739 -15107.407113   -407.263196
PE04 -26057.153255 -13834.623500  -2415.114345   -725.878468
PE05  -6185.570542  16130.998825 -24032.495288   -298.238592
PE07  22755.302282  -1780.483567  18858.018968   -510.876959
PE08  26202.591126  13508.922391   2731.976362   6035.393032
PE09 -22583.565381   1936.533994 -19025.907151   5739.672822
PE11 -15324.174900  10170.360407  23185.910751   6224.525927
PE12 -14444.140727 -13028.199606  22324.519017   5317.575714
PE13  15296.147714  -9789.522541 -23367.266752    413.321681
PE14  22485.269338  18816.931077  -4160.139620  -1356.739555
PE15  14424.158013  12916.979223 -22373.968924    825.412138
PE18 -12532.714012 -23191.658553  -7762.095669  -1483.523802
PE19 -12140.056312 -21126.343112  16816.047557    223.173671
PE21  15911.972140 -20080.736317 -14821.408929   -652.786593
PE24 -27020.822277  11380.642296  -4196.039918   -784.939514
PE25 -16092.161421  20060.396172  14666.522426   -528.126392
PE26   6942.338297 -27020.252516  -9890.647920   2058.868789
PE27  26831.057733 -11976.211035   3515.261762     13.541274
PE30  21357.029714   3908.287474  20096.535203   3118.786939
PE31 -21915.772010  -3101.844859 -19655.110363   -479.030445
PE33  -5073.089376 -27987.062558   8229.846793   -466.392434
PG01 -13599.985597  18007.158319  13479.384452    744.555206
PG02  14024.743467   5736.380123 -21154.671945   -584.675871
PG03 -21090.968566  13109.435868  -9349.440633   -104.029282
PG04 -13042.816614   8300.558145 -21598.073883   -185.285149
PG05  25324.046173  -2673.573062  -8030.601591    -35.817732
PG06   7395.693363  18752.091848 -17201.547234      0.151898
PG07  -6307.172082  25515.118407   -181.738848     85.072261
PG08 -18330.500692   1304.873843  19285.024069    -13.171072
PG09  -2025.617198  17357.367086 -20052.792625   -329.810810
PG10  -6524.383139 -13750.812413  21893.567580    -77.928831
PG11 -12134.227292  12872.169869  19463.157458     -2.977459
PG12  23847.668153  -9793.483620  -6293.890825    -11.885026
PG13  20349.443343   9321.480917  14261.302301    106.121666
PG14   4362.284681  14647.152304  21712.812097     99.812406
PG15  18361.994164  -3673.705602  18605.438704   -164.134458
PG16 -24857.245074  -1824.247832 -10065.020386   -291.793689
PG17  12256.698595  21860.272835   9220.231481    407.228049
PG18   4660.997085 -25966.058152   2792.110587    350.111932
PG19  17328.833687  20191.849744    168.631680    -28.288868
PG20   6075.351879 -17872.246538  18527.923205    524.316343
PG21 -15543.650961  10259.376075  19496.407553    101.950387
PG22 -24563.418357   9842.918814    352.594842   -663.541763
PG23   6008.588522 -16540.516240  19860.104081    117.819527
PG24  14904.502627 -13306.642868  17062.988371      1.265321
PG25  12887.229617 -16162.004210 -16779.043477     95.941524
PG26 -18636.056412  -7117.899344 -17717.171788     55.993272
PG27 -21973.268575 -10480.511431  10890.388476    -91.223050
PG28   6787.991932  13953.534830  22096.746502    604.312185
PG29   2668.781023 -16957.911829 -20298.775001   -309.182803
PG30   2263.178513  23882.555614  11199.094064   -396.283734
PG31  -9445.456906 -16189.073298 -18715.351567   -104.719702
PG32 -14786.379660 -20878.621790   7555.317334     20.874044
PJ01 -29418.279810  15827.177306 -21193.344255   -353.811456
PJ02 -30373.621726  29145.351716   7593.073857      3.105888
PJ03 -25582.817538  23735.217458  28729.577351     -1.559572
PR01 -23522.753849   -915.473778  -9804.088634     76.176101
PR02  -7468.491708   9023.293285 -22623.429462    470.161952
PR03  11316.121641  12435.398472 -19117.351871     32.146130
PR04  23468.361562   8692.076791  -4889.150126     77.259069
PR05  22452.091426    232.826784  12095.709174     67.906376
PR07 -11967.989927 -12473.633978  18815.144530    -42.531176
PR08 -23465.051843  -8747.518929   4964.498046    -57.825367
PR09  14374.487914 -19836.662891  -7218.140605    -17.846826
PR11 -12635.473582  -1906.873232 -22068.235299      2.440973
PR12 -19536.776325  12685.487970 -10405.446663    211.366233
PR13 -14679.456708  19745.723952   6717.429302    -51.802482
PR14   -946.222441  15071.571932  20560.233151     61.857004
PR15  12954.177199   1834.573626  21909.479161    105.009495
PR16  19260.077718 -13603.035934   9530.818472    -12.291982
PR17   6777.419645  24601.878290   -572.534840    406.727977
PR18  11627.170183  15811.338720 -16240.307368     69.291624
PR19  10535.872016   -244.717380 -23225.473962   -135.125976
PR20   2916.971709 -19437.758431 -16277.344271    -44.898627
PR21  -7201.251129 -24394.772236   1796.016852   -193.303043
PR22 -11655.364933 -15049.624941  17025.807714   -101.845808
PR24  -2628.992116  19992.447312  15646.118709     34.449720
EOF
